NORAD_CAT_ID,OBJECT_NAME,OBJECT_TYPE,EPOCH,MEAN_MOTION,ECCENTRICITY,INCLINATION,RA_OF_ASC_NODE,ARG_OF_PERICENTER,MEAN_ANOMALY,BSTAR,MEAN_MOTION_DOT,MEAN_MOTION_DDOT,TLE_LINE0,TLE_LINE1,TLE_LINE2,SEMIMAJOR_AXIS,PERIOD,APOGEE,PERIGEE,DECAYED
54763.0,STARLINK-5191,PAYLOAD,2024-04-04 20:49:11,15.08839624,0.0001445,53.2188,323.8556,110.3461,249.7686,0.00012445,1.693e-05,0.0,0 STARLINK-5191,1 54763U 22175F   24095.86748977  .00001693  00000-0  12445-3 0  9996,2 54763  53.2188 323.8556 0001445 110.3461 249.7686 15.08839624 71507,6917.882,95.438,540.746,538.747,0.0
54763.0,STARLINK-5191,PAYLOAD,2024-04-04 22:24:34,15.08839775,0.0001359,53.2187,323.5582,107.3111,252.803,0.00014411,2.006e-05,0.0,0 STARLINK-5191,1 54763U 22175F   24095.93373029  .00002006  00000-0  14411-3 0  9990,2 54763  53.2187 323.5582 0001359 107.3111 252.8030 15.08839775 73679,6917.881,95.438,540.686,538.806,0.0
54763.0,STARLINK-5191,PAYLOAD,2024-04-05 07:56:52,15.08849821,0.000133,53.2181,321.773,95.4525,264.6619,0.00021002,3.057e-05,0.0,0 STARLINK-5191,1 54763U 22175F   24096.33116443  .00003057  00000-0  21002-3 0  9991,2 54763  53.2181 321.7730 0001330  95.4525 264.6619 15.08849821 71577,6917.85,95.437,540.635,538.795,0.0
54763.0,STARLINK-5191,PAYLOAD,2024-04-05 20:39:58,15.08836696,0.0001533,53.2184,319.396,95.2983,264.8184,3.0148e-05,1.92e-06,0.0,0 STARLINK-5191,1 54763U 22175F   24096.86109152  .00000192  00000-0  30148-4 0  9997,2 54763  53.2184 319.3960 0001533  95.2983 264.8184 15.08836696 71653,6917.89,95.438,540.816,538.695,0.0
54763.0,STARLINK-5191,PAYLOAD,2024-04-06 07:47:39,15.08846972,0.0001473,53.2181,317.3108,84.4099,275.7061,0.0001124,1.502e-05,0.0,0 STARLINK-5191,1 54763U 22175F   24097.32476577  .00001502  00000-0  11240-3 0  9994,2 54763  53.2181 317.3108 0001473  84.4099 275.7061 15.08846972 71724,6917.859,95.437,540.743,538.705,0.0
54763.0,STARLINK-5191,PAYLOAD,2024-04-06 14:09:12,15.08844284,0.000138,53.2174,316.1234,84.6034,275.5115,0.00013376,1.842e-05,0.0,0 STARLINK-5191,1 54763U 22175F   24097.58972692  .00001842  00000-0  13376-3 0  9990,2 54763  53.2174 316.1234 0001380  84.6034 275.5115 15.08844284 73927,6917.867,95.437,540.687,538.778,0.0
54763.0,STARLINK-5191,PAYLOAD,2024-04-06 20:30:45,15.08838229,0.0001498,53.2172,314.9324,84.3401,275.7762,4.8624e-05,4.86e-06,0.0,0 STARLINK-5191,1 54763U 22175F   24097.85469058  .00000486  00000-0  48624-4 0  9995,2 54763  53.2172 314.9324 0001498  84.3401 275.7762 15.08838229 71803,6917.886,95.438,540.787,538.715,0.0
54763.0,STARLINK-5191,PAYLOAD,2024-04-06 22:06:08,15.08836066,0.0001334,53.2171,314.6346,83.5098,276.6045,-3.0595e-05,-7.75e-06,0.0,0 STARLINK-5191,1 54763U 22175F   24097.92093189 -.00000775  00000-0 -30595-4 0  9992,2 54763  53.2171 314.6346 0001334  83.5098 276.6045 15.08836066 73976,6917.892,95.438,540.68,538.835,0.0
54763.0,STARLINK-5191,PAYLOAD,2024-04-07 13:59:59,15.08848015,0.0001723,53.2176,311.6602,82.3698,277.749,3.3324e-05,2.42e-06,0.0,0 STARLINK-5191,1 54763U 22175F   24098.58332791  .00000242  00000-0  33324-4 0  9990,2 54763  53.2176 311.6602 0001723  82.3698 277.7490 15.08848015 74073,6917.856,95.437,540.913,538.529,0.0
54763.0,STARLINK-5191,PAYLOAD,2024-04-07 20:21:32,15.08842402,0.0001366,53.2175,310.4707,83.1567,276.9581,0.00012671,1.729e-05,0.0,0 STARLINK-5191,1 54763U 22175F   24098.84828810  .00001729  00000-0  12671-3 0  9993,2 54763  53.2175 310.4707 0001366  83.1567 276.9581 15.08842402 74113,6917.873,95.437,540.683,538.793,0.0
54763.0,STARLINK-5191,PAYLOAD,2024-04-07 23:32:18,15.08837115,0.000133,53.2176,309.8762,79.9006,280.2136,0.00016206,2.292e-05,0.0,0 STARLINK-5191,1 54763U 22175F   24098.98077033  .00002292  00000-0  16206-3 0  9995,2 54763  53.2176 309.8762 0001330  79.9006 280.2136 15.08837115 71979,6917.889,95.438,540.674,538.834,0.0
54763.0,STARLINK-5191,PAYLOAD,2024-04-08 07:29:13,15.088461,0.0001382,53.2179,308.3894,78.5846,281.5301,9.2512e-05,1.185e-05,0.0,0 STARLINK-5191,1 54763U 22175F   24099.31196595  .00001185  00000-0  92512-4 0  9993,2 54763  53.2179 308.3894 0001382  78.5846 281.5301 15.08846100 74184,6917.862,95.437,540.683,538.771,0.0
54763.0,STARLINK-5191,PAYLOAD,2024-04-08 20:12:19,15.08839308,0.0001364,53.2193,306.0109,81.3588,278.7559,8.9638e-05,1.139e-05,0.0,0 STARLINK-5191,1 54763U 22175F   24099.84188998  .00001139  00000-0  89638-4 0  9993,2 54763  53.2193 306.0109 0001364  81.3588 278.7559 15.08839308 74263,6917.883,95.438,540.691,538.804,0.0
54763.0,STARLINK-5191,PAYLOAD,2024-04-09 20:03:06,15.08841584,0.0001432,53.2194,301.5488,91.7523,268.3633,4.4432e-05,4.19e-06,0.0,0 STARLINK-5191,1 54763U 22175F   24100.83548887  .00000419  00000-0  44432-4 0  9995,2 54763  53.2194 301.5488 0001432  91.7523 268.3633 15.08841584 72258,6917.876,95.437,540.731,538.75,0.0
54763.0,STARLINK-5191,PAYLOAD,2024-04-10 13:32:21,15.0883548,0.0001276,53.2185,298.2772,90.2617,269.8521,3.6659e-05,2.96e-06,0.0,0 STARLINK-5191,1 54763U 22175F   24101.56413289  .00000296  00000-0  36659-4 0  9998,2 54763  53.2185 298.2772 0001276  90.2617 269.8521 15.08835480 72362,6917.894,95.438,540.642,538.876,0.0
54763.0,STARLINK-5191,PAYLOAD,2024-04-10 19:53:53,15.0883345,0.0001146,53.2179,297.0874,89.3722,270.7402,2.9633e-05,1.84e-06,0.0,0 STARLINK-5191,1 54763U 22175F   24101.82909496  .00000184  00000-0  29633-4 0  9997,2 54763  53.2179 297.0874 0001146  89.3722 270.7402 15.08833450 74565,6917.9,95.438,540.558,538.973,0.0
54763.0,STARLINK-5191,PAYLOAD,2024-04-11 05:26:12,15.08838609,0.0001539,53.2196,295.3047,94.511,265.6058,5.9236e-05,6.55e-06,0.0,0 STARLINK-5191,1 54763U 22175F   24102.22653214  .00000655  00000-0  59236-4 0  9991,2 54763  53.2196 295.3047 0001539  94.5110 265.6058 15.08838609 74620,6917.885,95.438,540.814,538.685,0.0
54763.0,STARLINK-5191,PAYLOAD,2024-04-11 19:44:40,15.0884587,0.0001186,53.2189,292.6317,99.1911,260.9215,-2.4668e-05,-6.8e-06,0.0,0 STARLINK-5191,1 54763U 22175F   24102.82269201 -.00000680  00000-0 -24668-4 0  9997,2 54763  53.2189 292.6317 0001186  99.1911 260.9215 15.08845870 72551,6917.862,95.437,540.548,538.907,0.0
54763.0,STARLINK-5191,PAYLOAD,2024-04-11 22:55:26,15.0883976,0.0001491,53.2181,292.0355,96.5737,263.5425,0.00010642,1.406e-05,0.0,0 STARLINK-5191,1 54763U 22175F   24102.95517181  .00001406  00000-0  10642-3 0  9995,2 54763  53.2181 292.0355 0001491  96.5737 263.5425 15.08839760 74730,6917.881,95.438,540.778,538.715,0.0
54763.0,STARLINK-5191,PAYLOAD,2024-04-12 22:46:14,15.08835768,0.0001159,53.2171,287.5734,92.3517,267.7608,8.5498e-05,1.073e-05,0.0,0 STARLINK-5191,1 54763U 22175F   24103.94877680  .00001073  00000-0  85498-4 0  9990,2 54763  53.2171 287.5734 0001159  92.3517 267.7608 15.08835768 72720,6917.893,95.438,540.56,538.957,0.0
54763.0,STARLINK-5191,PAYLOAD,2024-04-13 19:26:15,15.08841063,0.000118,53.2173,283.7067,82.9481,277.1645,2.4386e-05,1e-06,0.0,0 STARLINK-5191,1 54763U 22175F   24104.80989773  .00000100  00000-0  24386-4 0  9992,2 54763  53.2173 283.7067 0001180  82.9481 277.1645 15.08841063 75014,6917.877,95.437,540.558,538.926,0.0
54763.0,STARLINK-5191,PAYLOAD,2024-04-14 11:20:06,15.08841959,0.0001201,53.218,280.7293,80.4321,279.6807,9.2279e-05,1.181e-05,0.0,0 STARLINK-5191,1 54763U 22175F   24105.47229579  .00001181  00000-0  92279-4 0  9993,2 54763  53.2180 280.7293 0001201  80.4321 279.6807 15.08841959 72951,6917.874,95.437,540.57,538.909,0.0
54763.0,STARLINK-5191,PAYLOAD,2024-04-14 17:41:38,15.08848648,0.0001629,53.2175,279.5473,61.0426,299.073,0.00020097,2.913e-05,0.0,0 STARLINK-5191,1 54763U 22175F   24105.73724849  .00002913  00000-0  20097-3 0  9994,2 54763  53.2175 279.5473 0001629  61.0426 299.0730 15.08848648 72993,6917.854,95.437,540.846,538.592,0.0
54763.0,STARLINK-5191,PAYLOAD,2024-04-15 17:32:25,15.0884751,0.0001226,53.2174,275.0825,99.1452,260.9679,8.6516e-05,1.09e-05,0.0,0 STARLINK-5191,1 54763U 22175F   24106.73084950  .00001090  00000-0  86516-4 0  9991,2 54763  53.2174 275.0825 0001226  99.1452 260.9679 15.08847510 73142,6917.857,95.437,540.571,538.874,0.0
54763.0,STARLINK-5191,PAYLOAD,2024-04-16 14:12:25,15.08849607,0.0001722,53.2155,271.2153,91.5437,268.5752,-2.7776e-05,-7.3e-06,0.0,0 STARLINK-5191,1 54763U 22175F   24107.59196675 -.00000730  00000-0 -27776-4 0  9999,2 54763  53.2155 271.2153 0001722  91.5437 268.5752 15.08849607 75432,6917.851,95.437,540.907,538.525,0.0
54763.0,STARLINK-5191,PAYLOAD,2024-04-16 17:23:12,15.08849387,0.0001507,53.2173,270.6217,91.0318,269.0847,1.3281e-05,-7.7e-07,0.0,0 STARLINK-5191,1 54763U 22175F   24107.72444587 -.00000077  00000-0  13281-4 0  9991,2 54763  53.2173 270.6217 0001507  91.0318 269.0847 15.08849387 75458,6917.852,95.437,540.759,538.674,0.0
54763.0,STARLINK-5191,PAYLOAD,2024-04-17 10:52:27,15.08838927,0.0001469,53.2155,267.3504,83.8128,276.3032,0.00030152,4.514e-05,0.0,0 STARLINK-5191,1 54763U 22175F   24108.45309543  .00004514  00000-0  30152-3 0  9998,2 54763  53.2155 267.3504 0001469  83.8128 276.3032 15.08838927 73403,6917.884,95.438,540.765,538.732,0.0
54763.0,STARLINK-5191,PAYLOAD,2024-04-17 14:03:14,15.08818208,0.0001316,53.2155,266.7554,82.7562,277.3579,-0.00014158,-2.539e-05,0.0,0 STARLINK-5191,1 54763U 22175F   24108.58558211 -.00002539  00000-0 -14158-3 0  9995,2 54763  53.2155 266.7554 0001316  82.7562 277.3579 15.08818208 75580,6917.947,95.439,540.722,538.902,0.0
54763.0,STARLINK-5191,PAYLOAD,2024-04-17 15:38:37,15.08820486,0.0001493,53.2157,266.4583,91.3116,268.8047,-0.00010441,-1.948e-05,0.0,0 STARLINK-5191,1 54763U 22175F   24108.65182201 -.00001948  00000-0 -10441-3 0  9999,2 54763  53.2157 266.4583 0001493  91.3116 268.8047 15.08820486 73436,6917.94,95.439,540.838,538.772,0.0
54763.0,STARLINK-5191,PAYLOAD,2024-04-18 10:43:15,15.08833892,0.0001234,53.2159,262.889,93.6486,266.4647,0.00023628,3.474e-05,0.0,0 STARLINK-5191,1 54763U 22175F   24109.44670352  .00003474  00000-0  23628-3 0  9991,2 54763  53.2159 262.8890 0001234  93.6486 266.4647 15.08833892 73555,6917.899,95.438,540.618,538.91,0.0
